{"type":"FeatureCollection","features":[{"type":"Feature","properties":{"id":"tyrone","name":"Tyrone","geography":"OSNI county"},"geometry":{"type":"Polygon","coordinates":[[[-7.38177,54.94208],[-7.39209,54.94543],[-7.40525,54.94218],[-7.42493,54.94322],[-7.44734,54.93504],[-7.44521,54.91096],[-7.4525,54.8984],[-7.44215,54.87938],[-7.44408,54.86969],[-7.45524,54.86005],[-7.45601,54.85384],[-7.46146,54.85337],[-7.46101,54.84979],[-7.47086,54.83489],[-7.4811,54.83123],[-7.48403,54.82381],[-7.51744,54.80822],[-7.52826,54.80769],[-7.52759,54.80288],[-7.53908,54.80085],[-7.54931,54.78935],[-7.54324,54.78247],[-7.54811,54.77265],[-7.54756,54.75537],[-7.53425,54.74703],[-7.54919,54.74048],[-7.55776,54.74527],[-7.57841,54.74174],[-7.5754,54.74858],[-7.57824,54.75042],[-7.58665,54.74987],[-7.58857,54.74369],[-7.60086,54.74598],[-7.6176,54.74336],[-7.63662,54.7515],[-7.67737,54.73089],[-7.69744,54.72633],[-7.69703,54.72377],[-7.71161,54.7261],[-7.73529,54.71689],[-7.74493,54.7052],[-7.74995,54.70425],[-7.75682,54.70552],[-7.75381,54.7075],[-7.77809,54.71039],[-7.77615,54.71227],[-7.77876,54.71586],[-7.78867,54.71962],[-7.80471,54.71865],[-7.81684,54.72912],[-7.81777,54.73384],[-7.83669,54.73642],[-7.85512,54.72687],[-7.87969,54.70264],[-7.89034,54.70345],[-7.89525,54.70039],[-7.90695,54.70362],[-7.91085,54.70096],[-7.91811,54.70272],[-7.92101,54.69596],[-7.91267,54.69431],[-7.90771,54.68917],[-7.89908,54.69086],[-7.89802,54.68781],[-7.91411,54.67525],[-7.90406,54.66272],[-7.89328,54.65652],[-7.85659,54.65047],[-7.85399,54.64269],[-7.85714,54.63898],[-7.85083,54.63622],[-7.85473,54.6321],[-7.85131,54.63063],[-7.84255,54.63399],[-7.82833,54.63304],[-7.81326,54.64388],[-7.81399,54.64138],[-7.80218,54.63374],[-7.78368,54.63332],[-7.77246,54.6215],[-7.75777,54.62501],[-7.75431,54.61851],[-7.74339,54.62026],[-7.74158,54.61795],[-7.73784,54.62276],[-7.71646,54.62885],[-7.70837,54.6349],[-7.70341,54.62743],[-7.7064,54.61958],[-7.69348,54.61911],[-7.69489,54.61263],[-7.70348,54.60846],[-7.69133,54.61053],[-7.69259,54.60388],[-7.676,54.60333],[-7.67934,54.59981],[-7.67435,54.59612],[-7.67665,54.593],[-7.6692,54.58672],[-7.66982,54.58362],[-7.6247,54.58468],[-7.62432,54.58021],[-7.61996,54.57693],[-7.60187,54.5729],[-7.59937,54.56581],[-7.58776,54.56824],[-7.58835,54.56397],[-7.54924,54.5701],[-7.5396,54.56591],[-7.52873,54.5548],[-7.53585,54.54866],[-7.545,54.54672],[-7.54346,54.54418],[-7.56029,54.54184],[-7.56182,54.53699],[-7.55708,54.53198],[-7.56294,54.53096],[-7.56182,54.52838],[-7.57209,54.51947],[-7.5713,54.51274],[-7.57598,54.50921],[-7.57447,54.50548],[-7.58096,54.50315],[-7.58171,54.49763],[-7.59874,54.49244],[-7.61668,54.4917],[-7.61465,54.49024],[-7.63655,54.48322],[-7.62907,54.47429],[-7.61853,54.47127],[-7.62096,54.4675],[-7.61798,54.46549],[-7.62218,54.46214],[-7.62043,54.45919],[-7.60808,54.46237],[-7.60538,54.46042],[-7.60966,54.45526],[-7.61584,54.45828],[-7.63179,54.45314],[-7.62523,54.44927],[-7.62458,54.43945],[-7.61275,54.44037],[-7.60385,54.43448],[-7.59545,54.43706],[-7.58447,54.43135],[-7.57437,54.43384],[-7.5685,54.43108],[-7.56884,54.43454],[-7.55411,54.43883],[-7.55239,54.4366],[-7.55511,54.43341],[-7.54317,54.43159],[-7.5402,54.42679],[-7.52767,54.42146],[-7.53277,54.41824],[-7.52798,54.41365],[-7.51662,54.41152],[-7.50913,54.40564],[-7.47133,54.42134],[-7.44378,54.42612],[-7.4246,54.43338],[-7.42125,54.43948],[-7.42712,54.4427],[-7.40598,54.44006],[-7.39061,54.4427],[-7.38741,54.4384],[-7.36703,54.43752],[-7.35767,54.42201],[-7.36224,54.41964],[-7.35021,54.41611],[-7.34471,54.40851],[-7.33152,54.40482],[-7.33294,54.40193],[-7.32904,54.39753],[-7.33785,54.3923],[-7.33549,54.38756],[-7.34086,54.38455],[-7.3314,54.37857],[-7.33091,54.37399],[-7.33439,54.37168],[-7.32143,54.36846],[-7.31099,54.37118],[-7.30279,54.36742],[-7.29621,54.36924],[-7.30251,54.37436],[-7.29525,54.37651],[-7.28999,54.3702],[-7.28046,54.37155],[-7.27629,54.3636],[-7.27121,54.3611],[-7.27382,54.35742],[-7.27071,54.3538],[-7.27195,54.3441],[-7.26115,54.34043],[-7.26284,54.33675],[-7.25852,54.333],[-7.23695,54.3252],[-7.22712,54.32698],[-7.22283,54.33381],[-7.2008,54.33737],[-7.20096,54.34177],[-7.19435,54.34197],[-7.18883,54.33765],[-7.18163,54.33982],[-7.15272,54.33523],[-7.14115,54.33961],[-7.13648,54.34462],[-7.12814,54.34544],[-7.12369,54.35075],[-7.10356,54.35588],[-7.10166,54.36074],[-7.10981,54.36832],[-7.09147,54.37489],[-7.07243,54.38832],[-7.07007,54.39538],[-7.0564,54.40753],[-7.05732,54.41102],[-7.02919,54.42138],[-7.01655,54.41396],[-7.01337,54.41696],[-7.00059,54.41323],[-6.99875,54.41033],[-7.00212,54.4085],[-6.99582,54.40537],[-6.98777,54.40731],[-6.98921,54.40934],[-6.97882,54.40857],[-6.98103,54.40762],[-6.97664,54.4059],[-6.97839,54.40187],[-6.95919,54.39789],[-6.95965,54.39225],[-6.94406,54.3911],[-6.94553,54.38717],[-6.93796,54.38314],[-6.92375,54.38288],[-6.93316,54.37991],[-6.93272,54.37784],[-6.92642,54.37581],[-6.91946,54.37842],[-6.91105,54.37455],[-6.91233,54.37171],[-6.90671,54.36942],[-6.91066,54.36546],[-6.90295,54.36077],[-6.90565,54.35997],[-6.90637,54.35043],[-6.89309,54.35115],[-6.88635,54.34604],[-6.87604,54.34657],[-6.87557,54.3386],[-6.86844,54.33094],[-6.85402,54.32944],[-6.83706,54.33559],[-6.83129,54.3474],[-6.83262,54.35149],[-6.82683,54.35989],[-6.82126,54.36013],[-6.82178,54.36283],[-6.81387,54.36617],[-6.81273,54.37203],[-6.80897,54.37286],[-6.8125,54.37358],[-6.80434,54.38193],[-6.80744,54.38868],[-6.80435,54.39036],[-6.80832,54.39126],[-6.80369,54.39367],[-6.80749,54.39898],[-6.80077,54.40245],[-6.80249,54.40506],[-6.79374,54.41504],[-6.77079,54.41395],[-6.76096,54.40697],[-6.74904,54.41076],[-6.735,54.40916],[-6.72815,54.40165],[-6.71011,54.4039],[-6.7045,54.40777],[-6.70586,54.41384],[-6.70065,54.41653],[-6.70438,54.421],[-6.70284,54.42839],[-6.69384,54.42961],[-6.69366,54.4337],[-6.69804,54.43741],[-6.69708,54.44224],[-6.67452,54.4505],[-6.6679,54.46289],[-6.64981,54.47002],[-6.65262,54.47845],[-6.64899,54.48154],[-6.65069,54.48671],[-6.64026,54.49008],[-6.63796,54.49703],[-6.62945,54.50382],[-6.62157,54.50261],[-6.61008,54.50726],[-6.60377,54.50671],[-6.60169,54.50305],[-6.59178,54.50344],[-6.57778,54.51172],[-6.57849,54.51777],[-6.54127,54.5421],[-6.426,54.56822],[-6.4071,54.64884],[-6.46919,54.68524],[-6.53267,54.66584],[-6.54314,54.65717],[-6.56581,54.6582],[-6.56673,54.66272],[-6.5718,54.66456],[-6.58473,54.66006],[-6.58772,54.65509],[-6.60253,54.65694],[-6.60819,54.65128],[-6.6173,54.65184],[-6.62326,54.64716],[-6.6221,54.63956],[-6.63266,54.63796],[-6.63317,54.63289],[-6.63985,54.63002],[-6.65254,54.63132],[-6.65081,54.63813],[-6.68077,54.64267],[-6.67852,54.63452],[-6.7138,54.628],[-6.71902,54.63667],[-6.71442,54.63853],[-6.71227,54.64689],[-6.69378,54.64222],[-6.69423,54.64801],[-6.68487,54.64882],[-6.68517,54.6535],[-6.69208,54.65722],[-6.71335,54.65062],[-6.72055,54.65178],[-6.72271,54.65505],[-6.72102,54.66158],[-6.73756,54.65838],[-6.74025,54.66002],[-6.74052,54.66888],[-6.74546,54.67322],[-6.75529,54.6765],[-6.76425,54.68394],[-6.77755,54.68708],[-6.77903,54.6901],[-6.77598,54.69245],[-6.78407,54.70144],[-6.79681,54.70278],[-6.79721,54.70568],[-6.80538,54.70864],[-6.80877,54.71661],[-6.82438,54.7228],[-6.82776,54.72588],[-6.82665,54.73646],[-6.83016,54.74116],[-6.86432,54.73639],[-6.89132,54.72464],[-6.89147,54.73015],[-6.90819,54.7297],[-6.90891,54.73405],[-6.91788,54.73469],[-6.92815,54.73011],[-6.93528,54.73448],[-6.94902,54.73016],[-6.97052,54.73726],[-6.97248,54.74355],[-6.94075,54.75219],[-6.93597,54.76618],[-6.94001,54.77358],[-6.9221,54.77312],[-6.9029,54.78382],[-6.90596,54.79135],[-6.92243,54.80254],[-6.91182,54.81343],[-6.91207,54.82038],[-6.91937,54.82108],[-6.93503,54.83071],[-6.94624,54.83375],[-6.97183,54.8282],[-6.98738,54.83299],[-7.00421,54.82077],[-7.03946,54.81972],[-7.05401,54.8123],[-7.06377,54.8109],[-7.09233,54.8185],[-7.10159,54.81315],[-7.10359,54.82244],[-7.12283,54.82776],[-7.14298,54.84271],[-7.15666,54.84772],[-7.15917,54.85145],[-7.15332,54.85844],[-7.16641,54.85348],[-7.17818,54.85357],[-7.1912,54.84605],[-7.20378,54.85369],[-7.18774,54.85723],[-7.20636,54.86733],[-7.20455,54.87477],[-7.19758,54.8784],[-7.20034,54.88821],[-7.21401,54.88536],[-7.22985,54.88732],[-7.24358,54.8838],[-7.26971,54.88804],[-7.26843,54.89047],[-7.27277,54.89358],[-7.26208,54.90677],[-7.25839,54.91421],[-7.25966,54.91817],[-7.29585,54.9208],[-7.30161,54.9249],[-7.32282,54.91454],[-7.35745,54.91502],[-7.37056,54.9199],[-7.37106,54.9281],[-7.3817,54.94201],[-7.38177,54.94208]]]}},{"type":"Feature","properties":{"id":"antrim","name":"Antrim","geography":"OSNI county"},"geometry":{"type":"MultiPolygon","coordinates":[[[[-5.95296,54.55222],[-5.9512,54.55557],[-5.94204,54.55333],[-5.93338,54.56014],[-5.93451,54.56343],[-5.92694,54.56432],[-5.92862,54.56787],[-5.92529,54.56933],[-5.93108,54.57578],[-5.91996,54.5836],[-5.92019,54.5901],[-5.91258,54.59521],[-5.9202,54.59867],[-5.91952,54.60323],[-5.87483,54.63853],[-5.91286,54.64798],[-5.90025,54.65975],[-5.8957,54.67406],[-5.84993,54.69648],[-5.8498,54.69917],[-5.84587,54.69883],[-5.84233,54.70435],[-5.83386,54.70772],[-5.80667,54.71031],[-5.80453,54.71491],[-5.78019,54.72296],[-5.76908,54.72317],[-5.7662,54.7202],[-5.76796,54.7227],[-5.76579,54.72301],[-5.76486,54.71974],[-5.75489,54.72134],[-5.75742,54.72422],[-5.74424,54.72535],[-5.74575,54.72755],[-5.7331,54.7382],[-5.70665,54.73594],[-5.70477,54.73796],[-5.72425,54.73905],[-5.70993,54.74606],[-5.70592,54.75488],[-5.68805,54.76696],[-5.69475,54.77412],[-5.68945,54.80293],[-5.69295,54.81162],[-5.72224,54.84618],[-5.75768,54.85869],[-5.7628,54.8593],[-5.76163,54.85418],[-5.76883,54.85193],[-5.78024,54.85856],[-5.78162,54.85203],[-5.79,54.85204],[-5.78896,54.84439],[-5.7924,54.84466],[-5.75057,54.82528],[-5.7522,54.82148],[-5.74386,54.81774],[-5.74387,54.81511],[-5.73409,54.81323],[-5.73685,54.81192],[-5.73143,54.80992],[-5.73139,54.80485],[-5.72361,54.79909],[-5.72547,54.79349],[-5.71937,54.78874],[-5.72527,54.78526],[-5.71824,54.78583],[-5.72088,54.77797],[-5.7257,54.77782],[-5.73713,54.79588],[-5.75623,54.81185],[-5.74517,54.80775],[-5.74082,54.80921],[-5.7484,54.8154],[-5.76283,54.81836],[-5.77106,54.81535],[-5.77666,54.81877],[-5.77817,54.81612],[-5.80284,54.8237],[-5.81,54.83047],[-5.81243,54.84118],[-5.81738,54.84733],[-5.80297,54.84481],[-5.80101,54.84177],[-5.80364,54.84031],[-5.80085,54.84014],[-5.79556,54.85061],[-5.8218,54.87556],[-5.8372,54.88067],[-5.84247,54.8898],[-5.84042,54.89214],[-5.84278,54.89964],[-5.85944,54.89899],[-5.87799,54.90758],[-5.8994,54.94268],[-5.92486,54.96549],[-5.94045,54.97048],[-5.9554,54.9692],[-5.96577,54.97964],[-5.98226,54.97894],[-5.9904,54.98482],[-5.99269,54.98982],[-5.98748,54.99347],[-5.98712,55.00063],[-5.97722,55.00736],[-5.97899,55.01171],[-5.97163,55.02234],[-5.97214,55.03089],[-5.96323,55.04824],[-5.9665,55.05272],[-5.98134,55.05791],[-6.00098,55.05917],[-6.04246,55.05296],[-6.05777,55.06343],[-6.06036,55.06157],[-6.05281,55.06574],[-6.05489,55.06982],[-6.05181,55.08162],[-6.05537,55.082],[-6.05532,55.08473],[-6.04854,55.08834],[-6.03538,55.10525],[-6.03538,55.12299],[-6.04087,55.12539],[-6.04167,55.12994],[-6.02548,55.14045],[-6.02689,55.16122],[-6.03367,55.16976],[-6.05112,55.17576],[-6.05292,55.18256],[-6.06464,55.19085],[-6.06219,55.19886],[-6.07413,55.19797],[-6.10136,55.20882],[-6.11613,55.20953],[-6.13387,55.22405],[-6.14595,55.22802],[-6.15926,55.22612],[-6.17805,55.21383],[-6.20294,55.21168],[-6.21256,55.20745],[-6.23718,55.20446],[-6.23618,55.20268],[-6.23856,55.2077],[-6.24001,55.206],[-6.23787,55.20878],[-6.26017,55.213],[-6.27209,55.2212],[-6.28731,55.22478],[-6.29066,55.22692],[-6.28942,55.23025],[-6.31266,55.22981],[-6.33256,55.23964],[-6.34481,55.23902],[-6.35099,55.24267],[-6.35864,55.24089],[-6.36814,55.24583],[-6.37322,55.24218],[-6.38056,55.24248],[-6.39175,55.23467],[-6.40931,55.23228],[-6.42125,55.23849],[-6.42519,55.23654],[-6.44125,55.23992],[-6.45495,55.23906],[-6.46177,55.24289],[-6.46226,55.24794],[-6.47588,55.25216],[-6.49729,55.24615],[-6.50279,55.24747],[-6.50617,55.24039],[-6.5121,55.24142],[-6.51301,55.23828],[-6.51853,55.23922],[-6.51776,55.23527],[-6.53059,55.23372],[-6.53243,55.23013],[-6.52777,55.22863],[-6.52852,55.22498],[-6.53596,55.21962],[-6.54486,55.22008],[-6.54613,55.21602],[-6.5529,55.22008],[-6.58202,55.20977],[-6.60644,55.20592],[-6.62889,55.20845],[-6.64957,55.20506],[-6.65705,55.21278],[-6.66292,55.21265],[-6.66002,55.20586],[-6.65704,55.2072],[-6.65874,55.2056],[-6.6549,55.20338],[-6.65953,55.19877],[-6.66919,55.19899],[-6.66527,55.19085],[-6.64632,55.19495],[-6.63719,55.18806],[-6.62329,55.18591],[-6.62257,55.17932],[-6.61327,55.1817],[-6.60537,55.17388],[-6.60369,55.16555],[-6.5927,55.16842],[-6.59359,55.1657],[-6.58456,55.15605],[-6.58049,55.1441],[-6.57418,55.1433],[-6.56797,55.13478],[-6.56963,55.11294],[-6.58494,55.0886],[-6.60345,55.08342],[-6.60792,55.07924],[-6.59833,55.06856],[-6.58479,55.0638],[-6.58013,55.05759],[-6.58254,55.04995],[-6.57263,55.03581],[-6.57624,55.01739],[-6.58242,55.00937],[-6.57079,54.99293],[-6.57014,54.98546],[-6.5465,54.98014],[-6.55162,54.97416],[-6.54458,54.95905],[-6.53672,54.9574],[-6.53956,54.95322],[-6.51774,54.94083],[-6.49933,54.91821],[-6.50629,54.90826],[-6.49785,54.88972],[-6.48972,54.88566],[-6.48682,54.87612],[-6.48238,54.8743],[-6.47538,54.86153],[-6.47126,54.85345],[-6.47137,54.84125],[-6.46687,54.83923],[-6.46602,54.83368],[-6.45731,54.82455],[-6.46015,54.82155],[-6.45874,54.81699],[-6.47096,54.81247],[-6.47791,54.79417],[-6.47693,54.78135],[-6.48027,54.77586],[-6.4679,54.76457],[-6.46061,54.76685],[-6.4572,54.76183],[-6.48592,54.7366],[-6.49593,54.71367],[-6.46919,54.68524],[-6.4071,54.64884],[-6.426,54.56822],[-6.38083,54.51402],[-6.35398,54.50927],[-6.3268,54.51214],[-6.29588,54.49728],[-6.28051,54.49531],[-6.27765,54.49663],[-6.28002,54.50082],[-6.27704,54.50093],[-6.26593,54.49903],[-6.25771,54.49128],[-6.2397,54.4905],[-6.24014,54.49432],[-6.22989,54.49563],[-6.20868,54.49016],[-6.18785,54.47732],[-6.17631,54.47727],[-6.14324,54.48591],[-6.13042,54.49746],[-6.11291,54.49474],[-6.07442,54.50602],[-6.05707,54.49745],[-6.04165,54.50458],[-6.02786,54.50438],[-6.02327,54.50911],[-6.02564,54.5134],[-6.02106,54.51936],[-6.02725,54.52501],[-6.02265,54.52605],[-6.02328,54.52931],[-6.01424,54.53116],[-6.01911,54.53422],[-6.01779,54.53642],[-6.01084,54.53567],[-5.99304,54.54286],[-5.98423,54.53512],[-5.97808,54.53536],[-5.97623,54.53071],[-5.97276,54.53078],[-5.96759,54.53605],[-5.96011,54.53788],[-5.96609,54.54251],[-5.96505,54.54721],[-5.95359,54.54781],[-5.95298,54.5522],[-5.95296,54.55222]]],[[[-6.19282,55.29252],[-6.19454,55.29079],[-6.18874,55.28495],[-6.1961,55.28214],[-6.20082,55.27539],[-6.19961,55.26677],[-6.18991,55.25846],[-6.18122,55.26707],[-6.18306,55.27057],[-6.17859,55.27182],[-6.18101,55.27287],[-6.18094,55.27999],[-6.17532,55.28334],[-6.17705,55.28698],[-6.17371,55.29423],[-6.16832,55.2967],[-6.16984,55.30163],[-6.19846,55.30725],[-6.21842,55.30626],[-6.24205,55.31291],[-6.2463,55.30943],[-6.25575,55.31108],[-6.26012,55.30647],[-6.27,55.30696],[-6.2797,55.30246],[-6.28676,55.29438],[-6.27635,55.2915],[-6.26555,55.29285],[-6.2607,55.28984],[-6.22759,55.29605],[-6.19284,55.29254],[-6.19282,55.29252]]]]}},{"type":"Feature","properties":{"id":"armagh","name":"Armagh","geography":"OSNI county"},"geometry":{"type":"Polygon","coordinates":[[[-6.35398,54.50927],[-6.38083,54.51402],[-6.426,54.56822],[-6.54127,54.5421],[-6.57849,54.51777],[-6.57778,54.51172],[-6.59178,54.50344],[-6.60169,54.50305],[-6.60377,54.50671],[-6.61008,54.50726],[-6.62157,54.50261],[-6.62936,54.50387],[-6.63796,54.49703],[-6.64026,54.49008],[-6.65069,54.48671],[-6.64899,54.48154],[-6.65262,54.47845],[-6.64981,54.47002],[-6.6679,54.46289],[-6.67452,54.4505],[-6.69708,54.44224],[-6.69804,54.43741],[-6.69366,54.4337],[-6.69384,54.42961],[-6.70284,54.42839],[-6.70438,54.421],[-6.70065,54.41653],[-6.70586,54.41384],[-6.7045,54.40777],[-6.71011,54.4039],[-6.72815,54.40165],[-6.735,54.40916],[-6.74904,54.41076],[-6.76096,54.40697],[-6.77079,54.41395],[-6.79418,54.41474],[-6.80249,54.40506],[-6.80077,54.40245],[-6.80749,54.39898],[-6.80369,54.39367],[-6.80831,54.39133],[-6.80432,54.39028],[-6.80744,54.38868],[-6.80466,54.37962],[-6.81172,54.37489],[-6.80893,54.37294],[-6.81273,54.37203],[-6.81387,54.36617],[-6.82046,54.36416],[-6.82143,54.36001],[-6.82683,54.35989],[-6.83262,54.35149],[-6.83129,54.3474],[-6.83693,54.33574],[-6.86546,54.32804],[-6.86336,54.31533],[-6.85634,54.31359],[-6.8591,54.3039],[-6.85278,54.30054],[-6.85096,54.29194],[-6.86041,54.28927],[-6.85846,54.2826],[-6.86146,54.28111],[-6.86805,54.28212],[-6.86961,54.28762],[-6.87502,54.28733],[-6.8779,54.28502],[-6.87464,54.28205],[-6.87802,54.27906],[-6.86558,54.27458],[-6.86552,54.26967],[-6.8525,54.26902],[-6.8518,54.26502],[-6.83935,54.26774],[-6.82774,54.26145],[-6.82915,54.24747],[-6.81904,54.23848],[-6.8162,54.22301],[-6.8087,54.22473],[-6.80045,54.22112],[-6.80109,54.21317],[-6.77558,54.1989],[-6.75595,54.19904],[-6.74144,54.18212],[-6.73512,54.18577],[-6.72103,54.18199],[-6.72092,54.1872],[-6.71295,54.19141],[-6.71417,54.19461],[-6.71014,54.19802],[-6.69188,54.20024],[-6.6829,54.19317],[-6.67838,54.19564],[-6.67347,54.19217],[-6.66508,54.19317],[-6.65864,54.18476],[-6.64402,54.17973],[-6.63562,54.17073],[-6.62976,54.15322],[-6.63164,54.14707],[-6.64069,54.14207],[-6.63971,54.13177],[-6.64986,54.12941],[-6.64855,54.12161],[-6.66122,54.12267],[-6.66076,54.1174],[-6.64544,54.10062],[-6.64507,54.09595],[-6.65204,54.09297],[-6.65887,54.09614],[-6.66199,54.09273],[-6.65575,54.0872],[-6.65872,54.08406],[-6.65816,54.0762],[-6.66898,54.07281],[-6.66097,54.06278],[-6.64986,54.06141],[-6.64086,54.0483],[-6.63006,54.04329],[-6.62379,54.03651],[-6.62347,54.03891],[-6.61738,54.039],[-6.61612,54.04257],[-6.60661,54.03966],[-6.60456,54.045],[-6.59495,54.04459],[-6.593,54.04627],[-6.59571,54.05197],[-6.58661,54.05755],[-6.55796,54.04927],[-6.54538,54.0515],[-6.53197,54.05965],[-6.51053,54.05267],[-6.50986,54.05747],[-6.49658,54.05924],[-6.48434,54.06674],[-6.47127,54.0663],[-6.4815,54.07196],[-6.47776,54.07711],[-6.462,54.07057],[-6.45604,54.07254],[-6.44353,54.05647],[-6.43342,54.06106],[-6.42969,54.05835],[-6.41199,54.06308],[-6.39111,54.05887],[-6.38273,54.06846],[-6.3635,54.07265],[-6.36226,54.07929],[-6.36612,54.0939],[-6.36211,54.09631],[-6.36661,54.10209],[-6.36639,54.11364],[-6.35485,54.11048],[-6.34906,54.11393],[-6.33995,54.11191],[-6.33448,54.10508],[-6.33637,54.09472],[-6.31801,54.09096],[-6.31011,54.10063],[-6.30902,54.10671],[-6.29088,54.11268],[-6.3027,54.12307],[-6.3217,54.14778],[-6.31844,54.14988],[-6.32019,54.15281],[-6.32802,54.15716],[-6.32945,54.16232],[-6.34379,54.16472],[-6.34334,54.16858],[-6.3486,54.17108],[-6.34658,54.17388],[-6.35053,54.18436],[-6.33496,54.1857],[-6.33716,54.19032],[-6.34754,54.19255],[-6.3476,54.20114],[-6.35366,54.21506],[-6.36475,54.22648],[-6.36172,54.23123],[-6.36988,54.2381],[-6.36923,54.2438],[-6.37399,54.24709],[-6.36118,54.25852],[-6.3664,54.26963],[-6.35432,54.27419],[-6.35828,54.28207],[-6.37119,54.2926],[-6.36935,54.30402],[-6.36028,54.31353],[-6.36661,54.32947],[-6.36263,54.34079],[-6.36525,54.34574],[-6.37528,54.35119],[-6.38471,54.37142],[-6.38985,54.37367],[-6.40037,54.39328],[-6.39999,54.3963],[-6.39332,54.39543],[-6.38739,54.40223],[-6.37702,54.40443],[-6.37926,54.41154],[-6.37385,54.41875],[-6.37888,54.4228],[-6.37148,54.42795],[-6.34752,54.43483],[-6.35019,54.44129],[-6.34588,54.43984],[-6.34002,54.44439],[-6.33608,54.44368],[-6.33481,54.4472],[-6.31439,54.44165],[-6.30844,54.44393],[-6.3023,54.44979],[-6.30919,54.45124],[-6.31215,54.45535],[-6.3091,54.46255],[-6.30207,54.46543],[-6.30067,54.47385],[-6.28847,54.47361],[-6.27986,54.47896],[-6.29631,54.48492],[-6.29559,54.48737],[-6.29963,54.48936],[-6.31491,54.49053],[-6.31618,54.49382],[-6.33259,54.49656],[-6.33458,54.4998],[-6.33135,54.50239],[-6.35191,54.50891],[-6.35398,54.50927]]]}},{"type":"Feature","properties":{"id":"fermanagh","name":"Fermanagh","geography":"OSNI county"},"geometry":{"type":"Polygon","coordinates":[[[-7.69417,54.60511],[-7.69005,54.60992],[-7.7489,54.59948],[-7.76036,54.59419],[-7.7631,54.59008],[-7.75894,54.58758],[-7.76098,54.58637],[-7.78709,54.58021],[-7.79404,54.58159],[-7.79957,54.57659],[-7.79659,54.57162],[-7.83324,54.55234],[-7.82391,54.5444],[-7.85051,54.533],[-7.85657,54.53653],[-7.89466,54.53501],[-7.90763,54.53755],[-7.94967,54.53365],[-7.97032,54.54729],[-7.99141,54.54307],[-8.00597,54.54594],[-8.01422,54.53581],[-8.01285,54.53315],[-8.01723,54.53198],[-8.04175,54.50649],[-8.03851,54.50319],[-8.04261,54.48772],[-8.08904,54.48709],[-8.09861,54.48421],[-8.09546,54.4819],[-8.09722,54.47944],[-8.09111,54.47635],[-8.11317,54.47637],[-8.11539,54.47294],[-8.11149,54.4703],[-8.11477,54.46906],[-8.16405,54.46912],[-8.1775,54.46476],[-8.17008,54.46452],[-8.16745,54.45926],[-8.14317,54.45098],[-8.15029,54.44388],[-8.16189,54.442],[-8.08418,54.3974],[-8.06432,54.37345],[-8.05604,54.36853],[-8.05746,54.36584],[-8.0394,54.36272],[-8.03132,54.35663],[-8.02579,54.35991],[-8.01698,54.35689],[-8.00759,54.36122],[-8.00029,54.35809],[-7.99746,54.35567],[-8.00124,54.35061],[-7.9995,54.34716],[-7.98645,54.34419],[-7.98265,54.3362],[-7.97224,54.3308],[-7.96338,54.32044],[-7.96165,54.31243],[-7.94622,54.3044],[-7.9185,54.30313],[-7.91502,54.29707],[-7.91089,54.296],[-7.9015,54.30143],[-7.88818,54.30054],[-7.88094,54.29189],[-7.87444,54.29468],[-7.86188,54.29349],[-7.86463,54.28882],[-7.87071,54.28824],[-7.87321,54.27952],[-7.87077,54.27759],[-7.87274,54.26619],[-7.86503,54.26031],[-7.86055,54.26045],[-7.85998,54.22953],[-7.85536,54.22274],[-7.86024,54.21755],[-7.81147,54.20091],[-7.80341,54.20708],[-7.76803,54.20942],[-7.76861,54.20737],[-7.74837,54.20942],[-7.74435,54.20424],[-7.73924,54.20351],[-7.71058,54.20313],[-7.70202,54.20779],[-7.69206,54.20388],[-7.68544,54.20777],[-7.68849,54.19917],[-7.68373,54.1969],[-7.68531,54.19347],[-7.6795,54.1925],[-7.67653,54.18198],[-7.672,54.18147],[-7.66454,54.18795],[-7.65612,54.18566],[-7.64562,54.17597],[-7.62848,54.16926],[-7.62529,54.16544],[-7.62528,54.15327],[-7.61184,54.14746],[-7.61041,54.14378],[-7.59201,54.13988],[-7.57457,54.1415],[-7.57508,54.1337],[-7.56922,54.13289],[-7.56573,54.12659],[-7.55851,54.12783],[-7.54785,54.12221],[-7.54464,54.12644],[-7.54688,54.12904],[-7.53757,54.12728],[-7.5369,54.13104],[-7.52814,54.13576],[-7.51955,54.12968],[-7.50933,54.1299],[-7.49202,54.12314],[-7.47933,54.12225],[-7.47192,54.12662],[-7.47176,54.13328],[-7.46714,54.13425],[-7.4685,54.14079],[-7.45369,54.14474],[-7.44234,54.1539],[-7.43131,54.15205],[-7.40955,54.15621],[-7.41211,54.14851],[-7.42501,54.14113],[-7.42039,54.13685],[-7.40305,54.14091],[-7.39151,54.13676],[-7.38359,54.14132],[-7.37278,54.13952],[-7.39259,54.1269],[-7.3919,54.1202],[-7.36352,54.13144],[-7.34638,54.12249],[-7.34617,54.1165],[-7.33608,54.11674],[-7.32706,54.12459],[-7.31883,54.11335],[-7.30756,54.11752],[-7.30533,54.12336],[-7.31609,54.12694],[-7.31203,54.13174],[-7.31868,54.13441],[-7.31865,54.13744],[-7.32758,54.1353],[-7.32968,54.14103],[-7.33947,54.1468],[-7.32617,54.15149],[-7.31022,54.16731],[-7.30041,54.16612],[-7.29134,54.17194],[-7.27976,54.16763],[-7.28581,54.15784],[-7.28383,54.15385],[-7.28992,54.14919],[-7.29888,54.14928],[-7.30128,54.14405],[-7.28417,54.13977],[-7.28536,54.13648],[-7.29264,54.13057],[-7.29856,54.13381],[-7.30892,54.13212],[-7.30307,54.12655],[-7.30333,54.12272],[-7.29186,54.11909],[-7.27797,54.12325],[-7.27754,54.12966],[-7.26291,54.13744],[-7.26385,54.14533],[-7.25683,54.14816],[-7.25819,54.15371],[-7.25246,54.15571],[-7.2585,54.16085],[-7.25808,54.16452],[-7.24032,54.1697],[-7.25827,54.1774],[-7.25652,54.18182],[-7.25953,54.18407],[-7.25609,54.19021],[-7.25906,54.19224],[-7.23611,54.19338],[-7.23297,54.1978],[-7.24265,54.20063],[-7.24921,54.1979],[-7.24804,54.20447],[-7.23185,54.20557],[-7.23264,54.21087],[-7.22106,54.21576],[-7.20921,54.2128],[-7.19875,54.21563],[-7.18827,54.22484],[-7.18427,54.22435],[-7.18479,54.22007],[-7.1709,54.2176],[-7.14497,54.22473],[-7.14981,54.23163],[-7.14607,54.23979],[-7.15903,54.2437],[-7.14251,54.25164],[-7.14222,54.25556],[-7.15053,54.25834],[-7.15247,54.26672],[-7.15921,54.26907],[-7.15716,54.27068],[-7.16062,54.2736],[-7.17666,54.27054],[-7.17926,54.27256],[-7.17965,54.27674],[-7.17126,54.28361],[-7.17291,54.28607],[-7.20697,54.29438],[-7.21219,54.29958],[-7.19778,54.31108],[-7.17951,54.3093],[-7.17805,54.31672],[-7.18149,54.33311],[-7.19435,54.34197],[-7.20096,54.34177],[-7.2008,54.33737],[-7.22284,54.3338],[-7.22712,54.32698],[-7.24614,54.32695],[-7.26282,54.33673],[-7.26115,54.34043],[-7.27195,54.3441],[-7.27071,54.3538],[-7.27382,54.35742],[-7.27121,54.3611],[-7.27629,54.3636],[-7.28042,54.37153],[-7.28999,54.3702],[-7.29525,54.37651],[-7.30251,54.37436],[-7.29621,54.36924],[-7.30279,54.36742],[-7.31099,54.37118],[-7.32143,54.36846],[-7.33439,54.37168],[-7.33091,54.37399],[-7.3314,54.37857],[-7.34086,54.38455],[-7.33549,54.38756],[-7.33785,54.3923],[-7.32904,54.39753],[-7.33294,54.40193],[-7.33152,54.40482],[-7.34471,54.40851],[-7.35021,54.41611],[-7.36224,54.41964],[-7.35767,54.42201],[-7.36703,54.43752],[-7.38741,54.4384],[-7.39061,54.4427],[-7.40598,54.44006],[-7.42712,54.4427],[-7.42125,54.43948],[-7.4246,54.43338],[-7.44378,54.42612],[-7.47133,54.42134],[-7.50913,54.40564],[-7.51662,54.41152],[-7.52798,54.41365],[-7.53277,54.41824],[-7.52767,54.42146],[-7.5402,54.42679],[-7.54317,54.43159],[-7.55511,54.43341],[-7.55239,54.4366],[-7.55411,54.43883],[-7.56884,54.43454],[-7.5685,54.43108],[-7.57437,54.43384],[-7.58447,54.43135],[-7.59545,54.43706],[-7.60385,54.43448],[-7.61275,54.44037],[-7.62458,54.43945],[-7.62523,54.44927],[-7.63179,54.45314],[-7.61584,54.45828],[-7.60966,54.45526],[-7.60538,54.46042],[-7.60808,54.46237],[-7.62043,54.45919],[-7.62218,54.46214],[-7.61798,54.46549],[-7.62096,54.4675],[-7.61853,54.47127],[-7.62907,54.47429],[-7.6365,54.48329],[-7.61465,54.49024],[-7.61668,54.4917],[-7.59874,54.49244],[-7.58171,54.49763],[-7.58096,54.50315],[-7.57447,54.50548],[-7.57598,54.50921],[-7.5713,54.51274],[-7.57209,54.51947],[-7.56182,54.52838],[-7.56294,54.53096],[-7.55708,54.53198],[-7.56182,54.53699],[-7.56029,54.54184],[-7.54346,54.54418],[-7.545,54.54672],[-7.5358,54.54868],[-7.52815,54.55589],[-7.54567,54.56995],[-7.58835,54.56397],[-7.58776,54.56824],[-7.59937,54.56581],[-7.60187,54.5729],[-7.61996,54.57693],[-7.62432,54.58021],[-7.6247,54.58468],[-7.66982,54.58362],[-7.6692,54.58672],[-7.67665,54.593],[-7.67435,54.59612],[-7.67934,54.59981],[-7.676,54.60333],[-7.6939,54.60498],[-7.69417,54.60511]]]}},{"type":"Feature","properties":{"id":"derry","name":"Londonderry","geography":"OSNI county"},"geometry":{"type":"Polygon","coordinates":[[[-6.66919,55.19899],[-6.69362,55.19684],[-6.70349,55.19223],[-6.70742,55.1938],[-6.71417,55.18849],[-6.72189,55.1899],[-6.71919,55.18409],[-6.72538,55.18084],[-6.72411,55.17509],[-6.7271,55.17226],[-6.76844,55.16739],[-6.77228,55.1721],[-6.78206,55.16834],[-6.83249,55.16647],[-6.88972,55.16994],[-6.92038,55.17644],[-6.95152,55.19259],[-6.96612,55.1947],[-6.96499,55.19123],[-6.96732,55.19118],[-6.96292,55.18836],[-6.96034,55.1785],[-6.96883,55.14789],[-6.98843,55.11644],[-6.99308,55.1143],[-6.99,55.10955],[-6.99693,55.10586],[-7.01063,55.10646],[-7.02009,55.10042],[-7.0235,55.0899],[-7.01381,55.07708],[-7.02402,55.06839],[-7.04499,55.05796],[-7.04136,55.05566],[-7.0459,55.05827],[-7.04171,55.05306],[-7.04343,55.05165],[-7.04828,55.05151],[-7.04848,55.05425],[-7.04619,55.05369],[-7.05001,55.0569],[-7.05144,55.04955],[-7.05937,55.04769],[-7.12928,55.04191],[-7.14561,55.04539],[-7.14801,55.05731],[-7.15613,55.05896],[-7.18348,55.06095],[-7.21418,55.05688],[-7.22487,55.06106],[-7.23432,55.05373],[-7.23281,55.04821],[-7.24434,55.04598],[-7.24328,55.04992],[-7.24441,55.04597],[-7.24514,55.04811],[-7.24932,55.04644],[-7.24478,55.04572],[-7.25177,55.04417],[-7.2546,55.05198],[-7.24553,55.0635],[-7.25555,55.06545],[-7.25087,55.06431],[-7.25542,55.06341],[-7.25455,55.06003],[-7.25695,55.06724],[-7.27268,55.0635],[-7.27728,55.05434],[-7.2892,55.04741],[-7.29944,55.05612],[-7.31835,55.04509],[-7.34528,55.05078],[-7.34462,55.04882],[-7.35608,55.04574],[-7.36345,55.03823],[-7.36658,55.0386],[-7.37657,55.02869],[-7.39145,55.02235],[-7.39858,55.00906],[-7.40558,55.00331],[-7.39146,54.99784],[-7.40706,54.98295],[-7.40037,54.97219],[-7.40747,54.96365],[-7.40209,54.95957],[-7.40723,54.95521],[-7.39695,54.94606],[-7.38364,54.94402],[-7.37559,54.93691],[-7.37056,54.9199],[-7.35745,54.91502],[-7.32282,54.91454],[-7.30161,54.9249],[-7.29585,54.9208],[-7.25966,54.91817],[-7.25839,54.91421],[-7.26208,54.90677],[-7.27277,54.89358],[-7.26843,54.89047],[-7.26971,54.88804],[-7.24358,54.8838],[-7.22985,54.88732],[-7.21401,54.88536],[-7.20034,54.88821],[-7.19758,54.8784],[-7.20455,54.87477],[-7.20636,54.86733],[-7.18774,54.85723],[-7.20378,54.85369],[-7.1912,54.84605],[-7.17818,54.85357],[-7.16641,54.85348],[-7.15332,54.85844],[-7.15917,54.85145],[-7.15666,54.84772],[-7.14298,54.84271],[-7.12283,54.82776],[-7.10359,54.82244],[-7.10159,54.81315],[-7.09233,54.8185],[-7.06377,54.8109],[-7.05401,54.8123],[-7.03946,54.81972],[-7.00421,54.82077],[-6.98738,54.83299],[-6.97183,54.8282],[-6.94624,54.83375],[-6.93503,54.83071],[-6.91937,54.82108],[-6.91207,54.82038],[-6.91182,54.81343],[-6.92243,54.80254],[-6.90596,54.79135],[-6.9029,54.78382],[-6.9221,54.77312],[-6.94001,54.77358],[-6.93597,54.76618],[-6.94075,54.75219],[-6.97248,54.74355],[-6.97052,54.73726],[-6.94902,54.73016],[-6.93528,54.73448],[-6.92815,54.73011],[-6.91788,54.73469],[-6.90891,54.73405],[-6.90819,54.7297],[-6.89147,54.73015],[-6.89132,54.72464],[-6.86432,54.73639],[-6.83016,54.74116],[-6.82665,54.73646],[-6.82776,54.72588],[-6.82438,54.7228],[-6.80877,54.71661],[-6.80538,54.70864],[-6.79721,54.70568],[-6.79681,54.70278],[-6.78407,54.70144],[-6.77598,54.69245],[-6.77903,54.6901],[-6.77755,54.68708],[-6.76425,54.68394],[-6.75529,54.6765],[-6.74546,54.67322],[-6.74052,54.66888],[-6.74025,54.66002],[-6.73756,54.65838],[-6.72102,54.66158],[-6.72271,54.65505],[-6.72055,54.65178],[-6.71335,54.65062],[-6.69208,54.65722],[-6.68517,54.6535],[-6.68487,54.64882],[-6.69423,54.64801],[-6.69378,54.64222],[-6.71227,54.64689],[-6.71442,54.63853],[-6.71902,54.63667],[-6.71566,54.62857],[-6.67852,54.63452],[-6.68077,54.64267],[-6.65081,54.63813],[-6.65254,54.63132],[-6.63972,54.63005],[-6.63317,54.63289],[-6.63266,54.63796],[-6.6221,54.63956],[-6.62326,54.64716],[-6.6172,54.65189],[-6.60819,54.65128],[-6.60218,54.65704],[-6.5876,54.65512],[-6.58509,54.65985],[-6.57198,54.66454],[-6.56673,54.66272],[-6.56581,54.6582],[-6.54291,54.65723],[-6.53267,54.66584],[-6.46919,54.68524],[-6.49593,54.71367],[-6.48592,54.7366],[-6.4572,54.76183],[-6.46061,54.76685],[-6.4679,54.76457],[-6.48027,54.77586],[-6.47693,54.78135],[-6.47791,54.79417],[-6.47096,54.81247],[-6.45874,54.81699],[-6.46015,54.82155],[-6.45729,54.82449],[-6.46602,54.83368],[-6.46687,54.83923],[-6.47137,54.84125],[-6.47126,54.85345],[-6.47538,54.86153],[-6.48238,54.8743],[-6.48682,54.87612],[-6.48972,54.88566],[-6.49785,54.88972],[-6.50629,54.90826],[-6.49933,54.91821],[-6.51774,54.94083],[-6.53956,54.95322],[-6.53672,54.9574],[-6.54458,54.95905],[-6.55162,54.97416],[-6.5465,54.98014],[-6.57014,54.98546],[-6.57079,54.99293],[-6.58242,55.00937],[-6.57624,55.01739],[-6.57263,55.03581],[-6.58254,55.04995],[-6.58013,55.05759],[-6.58479,55.0638],[-6.59833,55.06856],[-6.60792,55.07924],[-6.60345,55.08342],[-6.58494,55.0886],[-6.56963,55.11294],[-6.56797,55.13478],[-6.57418,55.1433],[-6.58049,55.1441],[-6.58456,55.15605],[-6.59359,55.1657],[-6.5927,55.16842],[-6.60369,55.16555],[-6.60537,55.17388],[-6.61134,55.18052],[-6.62257,55.17932],[-6.62329,55.18591],[-6.63719,55.18806],[-6.64632,55.19495],[-6.66527,55.19085],[-6.66918,55.19893],[-6.66919,55.19899]]]}},{"type":"Feature","properties":{"id":"down","name":"Down","geography":"OSNI county"},"geometry":{"type":"MultiPolygon","coordinates":[[[[-6.07945,54.04737],[-6.07944,54.04737],[-6.0794,54.04739],[-6.07936,54.04741],[-6.07932,54.04744],[-6.0793,54.04745],[-6.07926,54.04748],[-6.07925,54.04749],[-6.07924,54.04749],[-6.07923,54.0475],[-6.07924,54.04751],[-6.07929,54.04755],[-6.07936,54.0476],[-6.07943,54.04766],[-6.07947,54.04771],[-6.07952,54.04776],[-6.07955,54.04781],[-6.07959,54.04787],[-6.07961,54.04792],[-6.07965,54.04797],[-6.07969,54.04801],[-6.07971,54.04807],[-6.07974,54.04815],[-6.07976,54.04821],[-6.07977,54.04825],[-6.07979,54.0483],[-6.0798,54.04834],[-6.07981,54.04843],[-6.07982,54.04849],[-6.07983,54.04854],[-6.07984,54.04858],[-6.07986,54.04855],[-6.07988,54.04852],[-6.07991,54.04848],[-6.07991,54.04845],[-6.07993,54.04841],[-6.07994,54.04835],[-6.07995,54.04833],[-6.07997,54.04828],[-6.07998,54.04825],[-6.07998,54.0482],[-6.08,54.04816],[-6.08002,54.0481],[-6.08005,54.04804],[-6.0801,54.048],[-6.08016,54.04795],[-6.0802,54.04792],[-6.08025,54.04788],[-6.08029,54.04784],[-6.08034,54.04779],[-6.0804,54.04774],[-6.08041,54.04772],[-6.08041,54.0477],[-6.0804,54.04768],[-6.08037,54.04765],[-6.08033,54.04762],[-6.08029,54.0476],[-6.08024,54.0476],[-6.08018,54.04758],[-6.08013,54.04757],[-6.08012,54.04755],[-6.08013,54.04754],[-6.08015,54.04753],[-6.08016,54.04752],[-6.08017,54.0475],[-6.08014,54.04749],[-6.08013,54.04749],[-6.08009,54.04748],[-6.08001,54.04746],[-6.07995,54.04745],[-6.07985,54.04743],[-6.07976,54.04741],[-6.07968,54.04738],[-6.07959,54.04736],[-6.07955,54.04736],[-6.0795,54.04736],[-6.07945,54.04737]]],[[[-5.6279,54.68007],[-5.63731,54.6783],[-5.63488,54.66986],[-5.64721,54.6655],[-5.65314,54.66627],[-5.65575,54.67098],[-5.66666,54.66585],[-5.66431,54.66689],[-5.67553,54.66565],[-5.68011,54.66885],[-5.69101,54.66493],[-5.6979,54.66839],[-5.72032,54.66696],[-5.73862,54.67399],[-5.74103,54.67762],[-5.77354,54.66599],[-5.8054,54.65905],[-5.82237,54.65164],[-5.8299,54.64498],[-5.84711,54.64013],[-5.85517,54.63353],[-5.87483,54.63853],[-5.91905,54.60384],[-5.9202,54.59867],[-5.91258,54.59521],[-5.92019,54.5901],[-5.91996,54.5836],[-5.93108,54.57578],[-5.92529,54.56933],[-5.92862,54.56787],[-5.9269,54.56437],[-5.93451,54.56343],[-5.93338,54.56014],[-5.94212,54.5533],[-5.9518,54.5554],[-5.95359,54.54781],[-5.96495,54.5473],[-5.96609,54.54251],[-5.96029,54.53768],[-5.97583,54.53058],[-5.97801,54.53531],[-5.98416,54.53508],[-5.99304,54.54286],[-6.01084,54.53567],[-6.01771,54.53646],[-6.01918,54.53433],[-6.01424,54.53116],[-6.02328,54.52931],[-6.02265,54.52605],[-6.02727,54.52494],[-6.02154,54.52145],[-6.02564,54.5134],[-6.02327,54.50911],[-6.02783,54.50439],[-6.04165,54.50458],[-6.05115,54.49869],[-6.05863,54.49752],[-6.06708,54.50451],[-6.07934,54.50569],[-6.11291,54.49474],[-6.13042,54.49746],[-6.15137,54.48241],[-6.18785,54.47732],[-6.20868,54.49016],[-6.22989,54.49563],[-6.24014,54.49432],[-6.2397,54.4905],[-6.25771,54.49128],[-6.26593,54.49903],[-6.27704,54.50093],[-6.28002,54.50082],[-6.27765,54.49663],[-6.28051,54.49531],[-6.29588,54.49728],[-6.3268,54.51214],[-6.35398,54.50927],[-6.33135,54.50239],[-6.33458,54.4998],[-6.33259,54.49656],[-6.31618,54.49382],[-6.31491,54.49053],[-6.29963,54.48936],[-6.29559,54.48737],[-6.29631,54.48492],[-6.27986,54.47892],[-6.28847,54.47361],[-6.30067,54.47385],[-6.30207,54.46543],[-6.3091,54.46255],[-6.31215,54.45535],[-6.30919,54.45124],[-6.3023,54.44979],[-6.30844,54.44393],[-6.31439,54.44165],[-6.33481,54.4472],[-6.33608,54.44368],[-6.34002,54.44439],[-6.34588,54.43984],[-6.35019,54.44129],[-6.34752,54.43483],[-6.37148,54.42795],[-6.37888,54.4228],[-6.37385,54.41875],[-6.37926,54.41154],[-6.37702,54.40443],[-6.38739,54.40223],[-6.39326,54.39545],[-6.40023,54.39584],[-6.39324,54.37867],[-6.38471,54.37142],[-6.3781,54.35532],[-6.36263,54.34079],[-6.36661,54.32947],[-6.36028,54.31353],[-6.36935,54.30402],[-6.37119,54.2926],[-6.35828,54.28207],[-6.35432,54.27419],[-6.3664,54.26963],[-6.36118,54.25852],[-6.37399,54.24709],[-6.36923,54.2438],[-6.36988,54.2381],[-6.36172,54.23123],[-6.36475,54.22648],[-6.35366,54.21506],[-6.3476,54.20114],[-6.34754,54.19255],[-6.33716,54.19032],[-6.33496,54.1857],[-6.35053,54.18436],[-6.34658,54.17388],[-6.3486,54.17108],[-6.34334,54.16858],[-6.34379,54.16472],[-6.33186,54.16389],[-6.32796,54.1571],[-6.32028,54.15292],[-6.31844,54.14988],[-6.3217,54.14778],[-6.2936,54.11405],[-6.28101,54.11118],[-6.26826,54.10223],[-6.25577,54.10084],[-6.25409,54.09635],[-6.23494,54.10133],[-6.1981,54.09817],[-6.19073,54.09392],[-6.19004,54.08526],[-6.1832,54.07365],[-6.17875,54.07432],[-6.15939,54.06496],[-6.15005,54.06578],[-6.13885,54.06166],[-6.12552,54.06595],[-6.10468,54.06127],[-6.09495,54.06264],[-6.07368,54.04746],[-6.07746,54.04856],[-6.08243,54.04502],[-6.08343,54.04809],[-6.09853,54.04856],[-6.09982,54.04371],[-6.10753,54.04021],[-6.08907,54.03645],[-6.08163,54.02951],[-6.06586,54.02826],[-6.06274,54.02273],[-6.02064,54.03853],[-6.00227,54.05371],[-5.98816,54.05761],[-5.99616,54.0613],[-5.98839,54.05796],[-5.96354,54.06257],[-5.95195,54.07779],[-5.89693,54.1047],[-5.89429,54.10781],[-5.89715,54.10868],[-5.89236,54.11127],[-5.89237,54.1178],[-5.88618,54.12148],[-5.88919,54.13475],[-5.87598,54.15346],[-5.87178,54.1676],[-5.87659,54.18844],[-5.89287,54.20543],[-5.89019,54.2105],[-5.8781,54.21845],[-5.82973,54.24194],[-5.82828,54.24733],[-5.83332,54.25125],[-5.83849,54.25318],[-5.84037,54.25021],[-5.84999,54.24886],[-5.84996,54.25354],[-5.84055,54.25705],[-5.83739,54.26538],[-5.82884,54.26993],[-5.82595,54.27742],[-5.83015,54.2771],[-5.81928,54.2831],[-5.81503,54.28343],[-5.82027,54.27228],[-5.81585,54.25918],[-5.83384,54.25659],[-5.82363,54.24433],[-5.81841,54.2429],[-5.75571,54.24618],[-5.75337,54.25008],[-5.7442,54.25221],[-5.72626,54.2531],[-5.7212,54.2485],[-5.69276,54.25131],[-5.6771,54.24659],[-5.67255,54.24032],[-5.67443,54.23838],[-5.67064,54.23862],[-5.67393,54.23503],[-5.67077,54.23281],[-5.66639,54.23517],[-5.66413,54.2268],[-5.66072,54.22557],[-5.64802,54.23131],[-5.64227,54.24092],[-5.63742,54.24038],[-5.63605,54.24452],[-5.63985,54.24949],[-5.63659,54.2526],[-5.64538,54.25606],[-5.63674,54.26263],[-5.63969,54.26303],[-5.63635,54.26326],[-5.63672,54.25911],[-5.62972,54.25818],[-5.62971,54.25416],[-5.63438,54.25243],[-5.62874,54.25078],[-5.62855,54.25512],[-5.62403,54.25578],[-5.61904,54.25393],[-5.61818,54.24617],[-5.60877,54.24871],[-5.60203,54.25673],[-5.60428,54.25781],[-5.6024,54.26111],[-5.60768,54.26092],[-5.6056,54.26216],[-5.60897,54.26325],[-5.60762,54.2657],[-5.59496,54.26099],[-5.58616,54.27064],[-5.57625,54.27305],[-5.56033,54.28648],[-5.55006,54.30671],[-5.54229,54.30782],[-5.53839,54.31275],[-5.52662,54.30992],[-5.52282,54.31477],[-5.542,54.31942],[-5.54287,54.32394],[-5.53939,54.329],[-5.54244,54.32802],[-5.54441,54.33232],[-5.54048,54.33886],[-5.54418,54.34055],[-5.54392,54.34372],[-5.5483,54.34419],[-5.54754,54.35148],[-5.55202,54.3599],[-5.54898,54.36529],[-5.55062,54.36945],[-5.55579,54.37186],[-5.55703,54.37639],[-5.56309,54.37604],[-5.56559,54.37009],[-5.56122,54.3675],[-5.56867,54.36496],[-5.56916,54.36931],[-5.57789,54.37301],[-5.57091,54.37656],[-5.57196,54.38289],[-5.58323,54.38194],[-5.58788,54.38465],[-5.604,54.37681],[-5.6145,54.37942],[-5.63547,54.37036],[-5.64012,54.37285],[-5.64055,54.3693],[-5.64608,54.36935],[-5.64644,54.36489],[-5.65667,54.36786],[-5.66338,54.36639],[-5.66597,54.36244],[-5.66831,54.36616],[-5.67565,54.36899],[-5.6796,54.3671],[-5.68482,54.37157],[-5.68014,54.37582],[-5.67724,54.37124],[-5.67916,54.37551],[-5.67412,54.37528],[-5.6654,54.38216],[-5.65441,54.38154],[-5.65817,54.38561],[-5.65418,54.38676],[-5.65381,54.39095],[-5.65065,54.38824],[-5.64692,54.39326],[-5.64999,54.39766],[-5.64619,54.39658],[-5.64125,54.40058],[-5.64168,54.41038],[-5.64962,54.41021],[-5.64878,54.41515],[-5.6475,54.41242],[-5.64404,54.41486],[-5.64746,54.41932],[-5.64296,54.42052],[-5.64531,54.42135],[-5.64176,54.42264],[-5.64226,54.42675],[-5.63806,54.42652],[-5.64429,54.42721],[-5.64469,54.43054],[-5.63789,54.42977],[-5.6329,54.43478],[-5.63396,54.43012],[-5.63076,54.4283],[-5.62894,54.43462],[-5.63477,54.43986],[-5.63841,54.43971],[-5.63668,54.43718],[-5.64008,54.43834],[-5.64132,54.44179],[-5.63796,54.44348],[-5.64402,54.44838],[-5.63323,54.44715],[-5.63475,54.44986],[-5.62871,54.45383],[-5.6267,54.46335],[-5.63263,54.46001],[-5.62912,54.45449],[-5.63644,54.45622],[-5.63437,54.45163],[-5.64936,54.45304],[-5.64925,54.45571],[-5.64037,54.45566],[-5.64689,54.45919],[-5.63968,54.45856],[-5.64251,54.46243],[-5.63942,54.46396],[-5.64667,54.46698],[-5.65485,54.46498],[-5.65603,54.46818],[-5.64638,54.47217],[-5.65439,54.47392],[-5.65364,54.4759],[-5.64471,54.48088],[-5.65414,54.48481],[-5.64963,54.48835],[-5.64224,54.48569],[-5.63974,54.48885],[-5.64944,54.48841],[-5.65465,54.49469],[-5.6529,54.49574],[-5.65804,54.49773],[-5.66495,54.49199],[-5.67413,54.49261],[-5.67038,54.49421],[-5.6778,54.49673],[-5.67434,54.50782],[-5.67618,54.50986],[-5.66472,54.50978],[-5.65683,54.5163],[-5.65188,54.51249],[-5.65657,54.51054],[-5.65468,54.5075],[-5.65176,54.51242],[-5.6462,54.5139],[-5.64471,54.50854],[-5.65096,54.50421],[-5.64799,54.50145],[-5.65083,54.49945],[-5.64075,54.49589],[-5.62747,54.50008],[-5.61911,54.50695],[-5.64654,54.49883],[-5.64816,54.50115],[-5.64522,54.50146],[-5.64293,54.50981],[-5.63637,54.5076],[-5.64345,54.51119],[-5.63175,54.51605],[-5.64026,54.51758],[-5.6405,54.51458],[-5.64908,54.51375],[-5.65398,54.5202],[-5.66629,54.51864],[-5.67271,54.5225],[-5.68067,54.52147],[-5.6817,54.51874],[-5.68043,54.52354],[-5.6885,54.52834],[-5.68636,54.52909],[-5.68908,54.53163],[-5.68525,54.53331],[-5.69868,54.53223],[-5.70787,54.53739],[-5.71442,54.53547],[-5.72294,54.53838],[-5.72245,54.54167],[-5.74127,54.5455],[-5.72645,54.54406],[-5.71857,54.53896],[-5.69717,54.54659],[-5.69941,54.56444],[-5.69667,54.57195],[-5.69047,54.57723],[-5.67187,54.5792],[-5.65655,54.56892],[-5.64049,54.5653],[-5.63909,54.56174],[-5.61428,54.5586],[-5.60485,54.54904],[-5.59557,54.54859],[-5.59521,54.54086],[-5.5881,54.54048],[-5.58703,54.53642],[-5.57888,54.53195],[-5.58197,54.52788],[-5.57792,54.52783],[-5.57876,54.53207],[-5.56983,54.53638],[-5.5615,54.53355],[-5.55602,54.52714],[-5.55575,54.52013],[-5.55041,54.51799],[-5.55402,54.51346],[-5.54864,54.51095],[-5.5515,54.50682],[-5.54612,54.50347],[-5.54703,54.49641],[-5.53795,54.4947],[-5.53675,54.48957],[-5.54257,54.48714],[-5.54174,54.48378],[-5.52932,54.48548],[-5.53739,54.48123],[-5.53333,54.47981],[-5.54039,54.4794],[-5.53044,54.47715],[-5.54114,54.47524],[-5.53209,54.46922],[-5.54131,54.46617],[-5.54383,54.46074],[-5.55796,54.45762],[-5.53985,54.462],[-5.53415,54.45811],[-5.53564,54.45364],[-5.52866,54.45435],[-5.53701,54.44682],[-5.5349,54.43779],[-5.54788,54.4381],[-5.54381,54.43425],[-5.53397,54.43414],[-5.53759,54.4336],[-5.53518,54.43054],[-5.5431,54.4332],[-5.53824,54.43038],[-5.53966,54.42508],[-5.54731,54.42731],[-5.54094,54.4295],[-5.54231,54.43101],[-5.5497,54.42839],[-5.54496,54.43342],[-5.54893,54.43491],[-5.55678,54.42934],[-5.56449,54.42986],[-5.56536,54.42462],[-5.56819,54.42555],[-5.57111,54.42182],[-5.5769,54.42303],[-5.57234,54.41848],[-5.57865,54.41008],[-5.57956,54.40052],[-5.57406,54.39765],[-5.57487,54.39363],[-5.56142,54.39045],[-5.55532,54.38312],[-5.54796,54.38],[-5.53894,54.36913],[-5.5405,54.36495],[-5.52799,54.35931],[-5.53045,54.35414],[-5.52699,54.34359],[-5.52211,54.34072],[-5.51335,54.34515],[-5.51086,54.33681],[-5.50515,54.33099],[-5.49577,54.33529],[-5.49965,54.33806],[-5.49511,54.34726],[-5.49818,54.35149],[-5.4928,54.35158],[-5.4898,54.35789],[-5.48128,54.35667],[-5.48288,54.36496],[-5.49303,54.36531],[-5.49239,54.36963],[-5.48487,54.37415],[-5.4897,54.37639],[-5.48133,54.38414],[-5.47351,54.3849],[-5.47043,54.38135],[-5.4623,54.38341],[-5.45813,54.39293],[-5.46457,54.39722],[-5.46424,54.4146],[-5.47214,54.41885],[-5.47271,54.42378],[-5.47891,54.42439],[-5.47966,54.42961],[-5.47165,54.43607],[-5.45531,54.43937],[-5.45048,54.45131],[-5.43564,54.4571],[-5.43979,54.45635],[-5.43616,54.4573],[-5.44002,54.4594],[-5.43568,54.47054],[-5.44201,54.47562],[-5.43279,54.48732],[-5.45587,54.4933],[-5.46357,54.49844],[-5.46801,54.51381],[-5.47168,54.5171],[-5.46976,54.52574],[-5.4817,54.53387],[-5.48377,54.53979],[-5.47962,54.544],[-5.48577,54.54662],[-5.47741,54.559],[-5.47725,54.56405],[-5.48931,54.57774],[-5.49665,54.577],[-5.50311,54.58121],[-5.50694,54.59163],[-5.52161,54.59762],[-5.52418,54.60811],[-5.53228,54.61707],[-5.52968,54.62076],[-5.53408,54.62244],[-5.53033,54.62845],[-5.53169,54.63426],[-5.52786,54.63627],[-5.53019,54.64497],[-5.53782,54.64364],[-5.54241,54.65098],[-5.54145,54.65453],[-5.55285,54.65554],[-5.56818,54.66359],[-5.57646,54.67513],[-5.58396,54.67767],[-5.59108,54.67432],[-5.59744,54.67868],[-5.61377,54.67506],[-5.62215,54.6772],[-5.62035,54.67953],[-5.62792,54.68004],[-5.6279,54.68007]]]]}},{"type":"Feature","properties":{"id":"belfast_east","name":"Belfast East","geography":"OSNI 2008 parliamentary constituency"},"geometry":{"type":"Polygon","coordinates":[[[-5.86042,54.62056],[-5.8539,54.62818],[-5.85532,54.63377],[-5.87451,54.63855],[-5.9164,54.60624],[-5.92005,54.59909],[-5.904,54.59252],[-5.89708,54.58303],[-5.89286,54.58184],[-5.90233,54.57762],[-5.9053,54.5725],[-5.88892,54.57061],[-5.87471,54.57728],[-5.87141,54.57308],[-5.87465,54.56588],[-5.8669,54.56754],[-5.85436,54.56122],[-5.8423,54.56566],[-5.8394,54.5619],[-5.81932,54.55664],[-5.8062,54.55665],[-5.80527,54.55317],[-5.79783,54.55515],[-5.79642,54.56385],[-5.78744,54.56683],[-5.78946,54.57015],[-5.78002,54.57649],[-5.77016,54.57554],[-5.75717,54.58169],[-5.76579,54.5917],[-5.77298,54.59409],[-5.76766,54.604],[-5.77112,54.61357],[-5.78053,54.61311],[-5.78598,54.61938],[-5.83052,54.61068],[-5.82864,54.61682],[-5.85951,54.62025],[-5.86042,54.62056]]]}},{"type":"Feature","properties":{"id":"belfast_north","name":"Belfast North","geography":"OSNI 2008 parliamentary constituency"},"geometry":{"type":"Polygon","coordinates":[[[-5.92119,54.68564],[-5.92487,54.68835],[-5.94326,54.68545],[-5.94715,54.67852],[-5.95167,54.68127],[-5.96228,54.67892],[-5.9645,54.68491],[-5.9792,54.67864],[-5.9728,54.67186],[-5.96425,54.66917],[-5.98294,54.66311],[-5.99291,54.65082],[-6.02337,54.62869],[-6.02178,54.62543],[-5.97905,54.62045],[-5.97577,54.61502],[-5.96421,54.61397],[-5.96755,54.60984],[-5.96485,54.60464],[-5.96702,54.60294],[-5.96294,54.60196],[-5.9594,54.60595],[-5.94713,54.6041],[-5.94534,54.60965],[-5.935,54.60693],[-5.93797,54.60335],[-5.92028,54.59961],[-5.9164,54.60624],[-5.87451,54.63855],[-5.91262,54.64809],[-5.90005,54.65996],[-5.895,54.67412],[-5.91013,54.67671],[-5.91065,54.6817],[-5.91696,54.67917],[-5.91939,54.68293],[-5.92119,54.68564]]]}},{"type":"Feature","properties":{"id":"belfast_south","name":"Belfast South","geography":"OSNI 2008 parliamentary constituency"},"geometry":{"type":"Polygon","coordinates":[[[-5.92407,54.6],[-5.95541,54.59122],[-5.97375,54.57559],[-5.98908,54.56922],[-5.99654,54.55118],[-5.99327,54.54295],[-5.98438,54.53534],[-5.97792,54.53511],[-5.97641,54.5307],[-5.96043,54.53764],[-5.96604,54.54256],[-5.96501,54.54737],[-5.95975,54.54905],[-5.94189,54.54688],[-5.94007,54.5431],[-5.92218,54.53762],[-5.91893,54.53403],[-5.92141,54.53077],[-5.91737,54.52364],[-5.91939,54.5191],[-5.90826,54.52003],[-5.89905,54.51068],[-5.89711,54.50103],[-5.9059,54.49671],[-5.89994,54.49687],[-5.89446,54.49853],[-5.88339,54.51282],[-5.87439,54.51516],[-5.87931,54.52378],[-5.88513,54.52561],[-5.87628,54.53172],[-5.87487,54.53878],[-5.88524,54.55036],[-5.88946,54.5506],[-5.89245,54.55654],[-5.89008,54.56133],[-5.87465,54.56588],[-5.87141,54.57308],[-5.87471,54.57728],[-5.88892,54.57061],[-5.9053,54.5725],[-5.90233,54.57762],[-5.89286,54.58184],[-5.9071,54.5943],[-5.92395,54.5994],[-5.92407,54.6]]]}},{"type":"Feature","properties":{"id":"belfast_west","name":"Belfast West","geography":"OSNI 2008 parliamentary constituency"},"geometry":{"type":"Polygon","coordinates":[[[-6.01647,54.62489],[-6.02178,54.62543],[-6.01919,54.61161],[-6.04081,54.61304],[-6.0447,54.60382],[-6.06956,54.59846],[-6.06187,54.5885],[-6.0684,54.58378],[-6.06121,54.57873],[-6.06572,54.5784],[-6.06101,54.57304],[-6.06659,54.57043],[-6.06097,54.56848],[-6.05578,54.56027],[-6.06293,54.5562],[-6.05182,54.54769],[-6.05233,54.54353],[-6.04572,54.54854],[-6.02824,54.54812],[-6.02715,54.54582],[-6.01543,54.55005],[-6.01013,54.54754],[-5.99593,54.54902],[-5.99092,54.56787],[-5.97375,54.57559],[-5.95541,54.59122],[-5.94551,54.59212],[-5.9411,54.59718],[-5.92718,54.59981],[-5.93797,54.60335],[-5.935,54.60693],[-5.94534,54.60965],[-5.94713,54.6041],[-5.9594,54.60595],[-5.96294,54.60196],[-5.96702,54.60294],[-5.96485,54.60464],[-5.96755,54.60984],[-5.96588,54.61493],[-5.97577,54.61502],[-5.98418,54.62235],[-6.01202,54.62466],[-6.01647,54.62489]]]}}]}
